{
    "links": {
        "self": "http://www.neowsapp.com/rest/v1/neo/3699899?api_key=iIulBulltgU6a56xZRHN4H3l9WmuAYTsLGpBGhQ2"
    },
    "id": "3699899",
    "neo_reference_id": "3699899",
    "name": "(2014 WN368)",
    "designation": "2014 WN368",
    "nasa_jpl_url": "http://ssd.jpl.nasa.gov/sbdb.cgi?sstr=3699899",
    "absolute_magnitude_h": 23.2,
    "estimated_diameter": {
        "kilometers": {
            "estimated_diameter_min": 0.0608912622,
            "estimated_diameter_max": 0.1361570015
        },
        "meters": {
            "estimated_diameter_min": 60.8912622106,
            "estimated_diameter_max": 136.1570015386
        },
        "miles": {
            "estimated_diameter_min": 0.0378360645,
            "estimated_diameter_max": 0.0846040122
        },
        "feet": {
            "estimated_diameter_min": 199.7744887109,
            "estimated_diameter_max": 446.7093369279
        }
    },
    "is_potentially_hazardous_asteroid": false,
    "close_approach_data": [
        {
            "close_approach_date": "2014-11-21",
            "close_approach_date_full": "2014-Nov-21 08:35",
            "epoch_date_close_approach": 1416558900000,
            "relative_velocity": {
                "kilometers_per_second": "14.1318112255",
                "kilometers_per_hour": "50874.5204118756",
                "miles_per_hour": "31611.4485303679"
            },
            "miss_distance": {
                "astronomical": "0.0650352618",
                "lunar": "25.2987168402",
                "kilometers": "9729136.640172366",
                "miles": "6045405.1790400108"
            },
            "orbiting_body": "Earth"
        }
    ],
    "orbital_data": {
        "orbit_id": "4",
        "orbit_determination_date": "2017-04-06 08:37:00",
        "first_observation_date": "2014-11-30",
        "last_observation_date": "2014-12-12",
        "data_arc_in_days": 12,
        "observations_used": 27,
        "orbit_uncertainty": "8",
        "minimum_orbit_intersection": ".022744",
        "jupiter_tisserand_invariant": "3.005",
        "epoch_osculation": "2456997.5",
        "eccentricity": ".6614338665301605",
        "semi_major_axis": "2.69583257666783",
        "inclination": "5.538695219127314",
        "ascending_node_longitude": "217.4246394955074",
        "orbital_period": "1616.731136570749",
        "perihelion_distance": ".9127176119644621",
        "perihelion_argument": "158.4018970059016",
        "aphelion_distance": "4.478947541371198",
        "perihelion_time": "2456953.643804116365",
        "mean_anomaly": "9.765526351893635",
        "mean_motion": ".2226715326109179",
        "equinox": "J2000",
        "orbit_class": {
            "orbit_class_type": "APO",
            "orbit_class_description": "Near-Earth asteroid orbits which cross the Earth’s orbit similar to that of 1862 Apollo",
            "orbit_class_range": "a (semi-major axis) > 1.0 AU; q (perihelion) < 1.017 AU"
        }
    },
    "is_sentry_object": false
}